CCSDS_OMM_VERS = 2.0
CREATION_DATE  = 
ORIGINATOR     = 

OBJECT_NAME    = STARLINK-36850
OBJECT_ID      = 2026-044U
CENTER_NAME    = EARTH
REF_FRAME      = TEME
TIME_SYSTEM    = UTC
MEAN_ELEMENT_THEORY = SGP/SGP4

EPOCH          = 2026-03-26T20:26:57.400800
MEAN_MOTION    = 15.75303163
ECCENTRICITY   = .0001709
INCLINATION    = 97.2835
RA_OF_ASC_NODE = 46.8658
ARG_OF_PERICENTER = 110.0251
MEAN_ANOMALY   = 250.1199

EPHEMERIS_TYPE = 0
CLASSIFICATION_TYPE = U
NORAD_CAT_ID   = 68119
ELEMENT_SET_NO = 999
REV_AT_EPOCH   = 418
BSTAR          = .15237E-2
MEAN_MOTION_DOT = .234636E-2
MEAN_MOTION_DDOT = 0

CCSDS_OMM_VERS = 2.0
CREATION_DATE  = 
ORIGINATOR     = 

OBJECT_NAME    = STARLINK-36868
OBJECT_ID      = 2026-044V
CENTER_NAME    = EARTH
REF_FRAME      = TEME
TIME_SYSTEM    = UTC
MEAN_ELEMENT_THEORY = SGP/SGP4

EPOCH          = 2026-03-26T20:24:55.959552
MEAN_MOTION    = 15.75234627
ECCENTRICITY   = .0001136
INCLINATION    = 97.2837
RA_OF_ASC_NODE = 46.8677
ARG_OF_PERICENTER = 95.7324
MEAN_ANOMALY   = 264.4071

EPHEMERIS_TYPE = 0
CLASSIFICATION_TYPE = U
NORAD_CAT_ID   = 68120
ELEMENT_SET_NO = 999
REV_AT_EPOCH   = 418
BSTAR          = .83608E-3
MEAN_MOTION_DOT = .126687E-2
MEAN_MOTION_DDOT = 0

CCSDS_OMM_VERS = 2.0
CREATION_DATE  = 
ORIGINATOR     = 

OBJECT_NAME    = STARLINK-36855
OBJECT_ID      = 2026-044W
CENTER_NAME    = EARTH
REF_FRAME      = TEME
TIME_SYSTEM    = UTC
MEAN_ELEMENT_THEORY = SGP/SGP4

EPOCH          = 2026-03-26T21:55:23.481408
MEAN_MOTION    = 15.75265318
ECCENTRICITY   = .0001589
INCLINATION    = 97.2836
RA_OF_ASC_NODE = 46.9356
ARG_OF_PERICENTER = 113.9585
MEAN_ANOMALY   = 246.1847

EPHEMERIS_TYPE = 0
CLASSIFICATION_TYPE = U
NORAD_CAT_ID   = 68121
ELEMENT_SET_NO = 999
REV_AT_EPOCH   = 419
BSTAR          = .11489E-2
MEAN_MOTION_DOT = .175372E-2
MEAN_MOTION_DDOT = 0

CCSDS_OMM_VERS = 2.0
CREATION_DATE  = 
ORIGINATOR     = 

OBJECT_NAME    = STARLINK-36366
OBJECT_ID      = 2026-044X
CENTER_NAME    = EARTH
REF_FRAME      = TEME
TIME_SYSTEM    = UTC
MEAN_ELEMENT_THEORY = SGP/SGP4

EPOCH          = 2026-03-26T20:23:24.124128
MEAN_MOTION    = 15.75296286
ECCENTRICITY   = .0001769
INCLINATION    = 97.2837
RA_OF_ASC_NODE = 46.8696
ARG_OF_PERICENTER = 100.9339
MEAN_ANOMALY   = 259.2126

EPHEMERIS_TYPE = 0
CLASSIFICATION_TYPE = U
NORAD_CAT_ID   = 68122
ELEMENT_SET_NO = 999
REV_AT_EPOCH   = 418
BSTAR          = .14587E-2
MEAN_MOTION_DOT = .224287E-2
MEAN_MOTION_DDOT = 0

CCSDS_OMM_VERS = 2.0
CREATION_DATE  = 
ORIGINATOR     = 

OBJECT_NAME    = STARLINK-36922
OBJECT_ID      = 2026-044Y
CENTER_NAME    = EARTH
REF_FRAME      = TEME
TIME_SYSTEM    = UTC
MEAN_ELEMENT_THEORY = SGP/SGP4

EPOCH          = 2026-03-26T21:51:19.568160
MEAN_MOTION    = 15.75265587
ECCENTRICITY   = .0001715
INCLINATION    = 97.2836
RA_OF_ASC_NODE = 46.9396
ARG_OF_PERICENTER = 116.4848
MEAN_ANOMALY   = 243.6593

EPHEMERIS_TYPE = 0
CLASSIFICATION_TYPE = U
NORAD_CAT_ID   = 68123
ELEMENT_SET_NO = 999
REV_AT_EPOCH   = 419
BSTAR          = .11714E-2
MEAN_MOTION_DOT = .17889E-2
MEAN_MOTION_DDOT = 0

CCSDS_OMM_VERS = 2.0
CREATION_DATE  = 
ORIGINATOR     = 

OBJECT_NAME    = STARLINK-36938
OBJECT_ID      = 2026-044Z
CENTER_NAME    = EARTH
REF_FRAME      = TEME
TIME_SYSTEM    = UTC
MEAN_ELEMENT_THEORY = SGP/SGP4

EPOCH          = 2026-03-26T21:23:37.679712
MEAN_MOTION    = 15.80625964
ECCENTRICITY   = .0000996
INCLINATION    = 97.2843
RA_OF_ASC_NODE = 46.9660
ARG_OF_PERICENTER = 14.9340
MEAN_ANOMALY   = 345.1958

EPHEMERIS_TYPE = 0
CLASSIFICATION_TYPE = U
NORAD_CAT_ID   = 68124
ELEMENT_SET_NO = 999
REV_AT_EPOCH   = 419
BSTAR          = -.10624E-2
MEAN_MOTION_DOT = -.197388E-2
MEAN_MOTION_DDOT = 0

CCSDS_OMM_VERS = 2.0
CREATION_DATE  = 
ORIGINATOR     = 

OBJECT_NAME    = STARLINK-36839
OBJECT_ID      = 2026-044AA
CENTER_NAME    = EARTH
REF_FRAME      = TEME
TIME_SYSTEM    = UTC
MEAN_ELEMENT_THEORY = SGP/SGP4

EPOCH          = 2026-03-26T21:52:51.185856
MEAN_MOTION    = 15.75235920
ECCENTRICITY   = .0001926
INCLINATION    = 97.2837
RA_OF_ASC_NODE = 46.9381
ARG_OF_PERICENTER = 112.6082
MEAN_ANOMALY   = 247.5387

EPHEMERIS_TYPE = 0
CLASSIFICATION_TYPE = U
NORAD_CAT_ID   = 68125
ELEMENT_SET_NO = 999
REV_AT_EPOCH   = 419
BSTAR          = .71479E-3
MEAN_MOTION_DOT = .108063E-2
MEAN_MOTION_DDOT = 0

CCSDS_OMM_VERS = 2.0
CREATION_DATE  = 
ORIGINATOR     = 

OBJECT_NAME    = ECHOSTAR 25
OBJECT_ID      = 2026-045A
CENTER_NAME    = EARTH
REF_FRAME      = TEME
TIME_SYSTEM    = UTC
MEAN_ELEMENT_THEORY = SGP/SGP4

EPOCH          = 2026-03-25T11:29:38.587776
MEAN_MOTION    = 1.00371397
ECCENTRICITY   = .0008498
INCLINATION    = 0.0615
RA_OF_ASC_NODE = 280.3778
ARG_OF_PERICENTER = 134.0174
MEAN_ANOMALY   = 172.0245

EPHEMERIS_TYPE = 0
CLASSIFICATION_TYPE = U
NORAD_CAT_ID   = 68126
ELEMENT_SET_NO = 999
REV_AT_EPOCH   = 15
BSTAR          = 0
MEAN_MOTION_DOT = .34E-6
MEAN_MOTION_DDOT = 0

CCSDS_OMM_VERS = 2.0
CREATION_DATE  = 
ORIGINATOR     = 

OBJECT_NAME    = ICOR SV
OBJECT_ID      = 2026-046A
CENTER_NAME    = EARTH
REF_FRAME      = TEME
TIME_SYSTEM    = UTC
MEAN_ELEMENT_THEORY = SGP/SGP4

EPOCH          = 2026-03-26T10:37:46.540128
MEAN_MOTION    = 15.92014134
ECCENTRICITY   = .011042
INCLINATION    = 123.0767
RA_OF_ASC_NODE = 281.8658
ARG_OF_PERICENTER = 215.6722
MEAN_ANOMALY   = 143.6934

EPHEMERIS_TYPE = 0
CLASSIFICATION_TYPE = U
NORAD_CAT_ID   = 68127
ELEMENT_SET_NO = 999
REV_AT_EPOCH   = 226
BSTAR          = .64694E-3
MEAN_MOTION_DOT = .393196E-2
MEAN_MOTION_DDOT = .70889E-4

CCSDS_OMM_VERS = 2.0
CREATION_DATE  = 
ORIGINATOR     = 

OBJECT_NAME    = FIREFLY ALPHA R/B
OBJECT_ID      = 2026-046B
CENTER_NAME    = EARTH
REF_FRAME      = TEME
TIME_SYSTEM    = UTC
MEAN_ELEMENT_THEORY = SGP/SGP4

EPOCH          = 2026-03-26T11:07:14.272896
MEAN_MOTION    = 15.57035115
ECCENTRICITY   = .001571
INCLINATION    = 123.0943
RA_OF_ASC_NODE = 279.0538
ARG_OF_PERICENTER = 13.9848
MEAN_ANOMALY   = 346.1645

EPHEMERIS_TYPE = 0
CLASSIFICATION_TYPE = U
NORAD_CAT_ID   = 68128
ELEMENT_SET_NO = 999
REV_AT_EPOCH   = 225
BSTAR          = .49132E-3
MEAN_MOTION_DOT = .35973E-3
MEAN_MOTION_DDOT = 0

CCSDS_OMM_VERS = 2.0
CREATION_DATE  = 
ORIGINATOR     = 

OBJECT_NAME    = GUOWANG GROUP 20 OBJECT A
OBJECT_ID      = 2026-047A
CENTER_NAME    = EARTH
REF_FRAME      = TEME
TIME_SYSTEM    = UTC
MEAN_ELEMENT_THEORY = SGP/SGP4

EPOCH          = 2026-03-26T06:11:03.114816
MEAN_MOTION    = 13.97025543
ECCENTRICITY   = .0000401
INCLINATION    = 50.0056
RA_OF_ASC_NODE = 3.0446
ARG_OF_PERICENTER = 255.2618
MEAN_ANOMALY   = 104.8239

EPHEMERIS_TYPE = 0
CLASSIFICATION_TYPE = U
NORAD_CAT_ID   = 68129
ELEMENT_SET_NO = 999
REV_AT_EPOCH   = 189
BSTAR          = .31334E-4
MEAN_MOTION_DOT = -.105E-5
MEAN_MOTION_DDOT = 0

CCSDS_OMM_VERS = 2.0
CREATION_DATE  = 
ORIGINATOR     = 

OBJECT_NAME    = GUOWANG GROUP 20 OBJECT B
OBJECT_ID      = 2026-047B
CENTER_NAME    = EARTH
REF_FRAME      = TEME
TIME_SYSTEM    = UTC
MEAN_ELEMENT_THEORY = SGP/SGP4

EPOCH          = 2026-03-26T06:08:02.634720
MEAN_MOTION    = 13.97221569
ECCENTRICITY   = .0000455
INCLINATION    = 50.0064
RA_OF_ASC_NODE = 3.0345
ARG_OF_PERICENTER = 299.9514
MEAN_ANOMALY   = 60.1342

EPHEMERIS_TYPE = 0
CLASSIFICATION_TYPE = U
NORAD_CAT_ID   = 68130
ELEMENT_SET_NO = 999
REV_AT_EPOCH   = 188
BSTAR          = .55359E-4
MEAN_MOTION_DOT = -.71E-6
MEAN_MOTION_DDOT = 0

