STARLINK-36850          
1 68119U 26044U   26085.85205325  .00234636  00000+0  15237-2 0  9995
2 68119  97.2835  46.8658 0001709 110.0251 250.1199 15.75303163  4189
STARLINK-36868          
1 68120U 26044V   26085.85064768  .00126687  00000+0  83608-3 0  9995
2 68120  97.2837  46.8677 0001136  95.7324 264.4071 15.75234627  4183
STARLINK-36855          
1 68121U 26044W   26085.91346622  .00175372  00000+0  11489-2 0  9997
2 68121  97.2836  46.9356 0001589 113.9585 246.1847 15.75265318  4192
STARLINK-36366          
1 68122U 26044X   26085.84958477  .00224287  00000+0  14587-2 0  9999
2 68122  97.2837  46.8696 0001769 100.9339 259.2126 15.75296286  4185
STARLINK-36922          
1 68123U 26044Y   26085.91064315  .00178890  00000+0  11714-2 0  9994
2 68123  97.2836  46.9396 0001715 116.4848 243.6593 15.75265587  4197
STARLINK-36938          
1 68124U 26044Z   26085.89140833 -.00197388  00000+0 -10624-2 0  9996
2 68124  97.2843  46.9660 0000996  14.9340 345.1958 15.80625964  4197
STARLINK-36839          
1 68125U 26044AA  26085.91170354  .00108063  00000+0  71479-3 0  9997
2 68125  97.2837  46.9381 0001926 112.6082 247.5387 15.75235920  4198
ECHOSTAR 25             
1 68126U 26045A   26084.47891884  .00000034  00000+0  00000+0 0  9994
2 68126   0.0615 280.3778 0008498 134.0174 172.0245  1.00371397   159
ICOR SV                 
1 68127U 26046A   26085.44289977  .00393196  70889-4  64694-3 0  9992
2 68127 123.0767 281.8658 0110420 215.6722 143.6934 15.92014134  2263
FIREFLY ALPHA R/B       
1 68128U 26046B   26085.46335964  .00035973  00000+0  49132-3 0  9992
2 68128 123.0943 279.0538 0015710  13.9848 346.1645 15.57035115  2251
GUOWANG GROUP 20 OBJECT*
1 68129U 26047A   26085.25767494 -.00000105  00000+0  31334-4 0  9994
2 68129  50.0056   3.0446 0000401 255.2618 104.8239 13.97025543  1899
GUOWANG GROUP 20 OBJECT*
1 68130U 26047B   26085.25558605 -.00000071  00000+0  55359-4 0  9993
2 68130  50.0064   3.0345 0000455 299.9514  60.1342 13.97221569  1881
